{"spkid": "20471984", "covariance": {"epoch": "2457031.5", "labels": ["e", "q", "tp", "node", "peri", "i"], "elements": [{"label": "e", "sigma": 1.74186896196382e-06, "name": "e", "units": null, "title": "eccentricity", "value": ".2255925985555278"}, {"label": "q", "units": "au", "value": ".794076906022816", "title": "perihelion distance", "sigma": 1.59982114049202e-06, "name": "q"}, {"label": "tp", "value": "2457088.435351714887", "title": "time of perihelion passage", "units": "TDB", "sigma": 6.17521886010499e-05, "name": "tp"}, {"name": "om", "sigma": 5.51126982375507e-05, "title": "longitude of the ascending node", "value": "50.00729034790748", "units": "deg", "label": "node"}, {"name": "w", "sigma": 7.8060102800766e-05, "units": "deg", "value": "117.0932644136935", "title": "argument of perihelion", "label": "peri"}, {"name": "i", "sigma": 2.09519935682001e-05, "units": "deg", "title": "inclination", "value": "3.37289034793523", "label": "i"}], "data": [["3.03410748065292E-12", "-2.786662524891542E-12", "5.887154396564719E-11", "6.255384272979925E-14", "8.597251901510478E-11", "3.583762266128154E-11"], ["-2.786662524891542E-12", "2.559427681565192E-12", "-5.389363522051534E-11", "-1.993018094739824E-14", "-7.888106127359433E-11", "-3.291831680255079E-11"], ["5.887154396564719E-11", "-5.389363522051534E-11", "3.813332797019632E-9", "4.633990528729067E-10", "3.038743155198965E-9", "6.514028109994224E-10"], ["6.255384272979925E-14", "-1.993018094739824E-14", "4.633990528729067E-10", "3.037409507023328E-9", "-2.713103786753841E-9", "-5.778825290786539E-11"], ["8.597251901510478E-11", "-7.888106127359433E-11", "3.038743155198965E-9", "-2.713103786753841E-9", "6.093379649266164E-9", "1.044104547438077E-9"], ["3.583762266128154E-11", "-3.291831680255079E-11", "6.514028109994224E-10", "-5.778825290786539E-11", "1.044104547438077E-9", "4.389860344818976E-10"]]}, "elements": [{"label": "e", "title": "eccentricity", "value": ".2256392913231486", "units": null, "sigma": "1.7303E-6", "name": "e"}, {"label": "a", "name": "a", "sigma": "2.0634E-7", "value": "1.026163854419861", "title": "semi-major axis", "units": "au"}, {"label": "q", "units": "au", "value": ".794620969527133", "title": "perihelion distance", "name": "q", "sigma": "1.6158E-6"}, {"label": "i", "sigma": "2.1602E-5", "name": "i", "units": "deg", "value": "3.356644395168165", "title": "inclination; angle with respect to x-y ecliptic plane"}, {"label": "node", "title": "longitude of the ascending node", "value": "49.69702518604073", "units": "deg", "sigma": "5.6713E-5", "name": "om"}, {"label": "peri", "units": "deg", "title": "argument of perihelion", "value": "117.4562606704645", "sigma": "6.9968E-5", "name": "w"}, {"units": "deg", "title": "mean anomaly", "value": "299.2324146480303", "name": "ma", "sigma": ".0012864", "label": "M"}, {"label": "tp", "value": "2461264.590398991289", "title": "time of perihelion passage", "units": "TDB", "name": "tp", "sigma": ".0013761"}, {"label": "period", "value": "379.6850492450304", "title": "sidereal orbital period", "units": "d", "name": "per", "sigma": ".00011452"}, {"label": "n", "value": ".9481542681647004", "title": "mean motion", "units": "deg/d", "name": "n", "sigma": "2.8598E-7"}, {"label": "Q", "name": "ad", "sigma": "2.529E-7", "title": "aphelion distance", "value": "1.257706739312589", "units": "au"}], "epoch": "2461200.5"}